{"type": "FeatureCollection", "features": [ {"type": "Feature", "properties": {"norad_id": 35045, "name": "COSMOS 2251 DEB", "group": "cosmos-2251-debris", "lat": 47.85256864894779, "lon": 56.39550268751893, "alt_km": 976.2891001257731, "timestamp": "2025-12-21T07:34:34.910313+00:00", "meta": {"OBJECT_NAME": "COSMOS 2251 DEB", "OBJECT_ID": "1993-036AHJ", "EPOCH": "2025-12-20T12:28:28.167744", "MEAN_MOTION": 14.00402013, "ECCENTRICITY": 0.0183906, "INCLINATION": 73.7193, "RA_OF_ASC_NODE": 38.9629, "ARG_OF_PERICENTER": 279.9128, "MEAN_ANOMALY": 78.1289, "EPHEMERIS_TYPE": 0, "CLASSIFICATION_TYPE": "U", "NORAD_CAT_ID": 35045, "ELEMENT_SET_NO": 999, "REV_AT_EPOCH": 84752, "BSTAR": 0.0005282, "MEAN_MOTION_DOT": 8.78e-06, "MEAN_MOTION_DDOT": 0}, "tle": {"line1": "1 35045U 93036AHJ 25354.51977046  .00000878  00000+0  52820-3 0  9998", "line2": "2 35045  73.7193  38.9629 0183906 279.9128  78.1289 14.00402013847527"}}, "geometry": {"type": "Point", "coordinates": [56.39550268751893, 47.85256864894779]}}, {"type": "Feature", "properties": {"norad_id": 35060, "name": "COSMOS 2251 DEB", "group": "cosmos-2251-debris", "lat": 31.642275458909733, "lon": 38.285289938110296, "alt_km": 763.9124061721823, "timestamp": "2025-12-21T07:34:34.910322+00:00", "meta": {"OBJECT_NAME": "COSMOS 2251 DEB", "OBJECT_ID": "1993-036AHP", "EPOCH": "2025-12-17T09:37:48.798336", "MEAN_MOTION": 14.41611034, "ECCENTRICITY": 0.00186104, "INCLINATION": 74.0362, "RA_OF_ASC_NODE": 235.6937, "ARG_OF_PERICENTER": 321.6138, "MEAN_ANOMALY": 38.3692, "EPHEMERIS_TYPE": 0, "CLASSIFICATION_TYPE": "U", "NORAD_CAT_ID": 35060, "ELEMENT_SET_NO": 999, "REV_AT_EPOCH": 87309, "BSTAR": 0.00026105938, "MEAN_MOTION_DOT": 8.25e-06, "MEAN_MOTION_DDOT": 0}, "tle": {"line1": "1 35060U 93036AHP 25351.40125924  .00000825  00000+0  26106-3 0  9990", "line2": "2 35060  74.0362 235.6937 0018610 321.6138  38.3692 14.41611034873096"}}, "geometry": {"type": "Point", "coordinates": [38.285289938110296, 31.642275458909733]}}, {"type": "Feature", "properties": {"norad_id": 35061, "name": "COSMOS 2251 DEB", "group": "cosmos-2251-debris", "lat": 55.23967208161192, "lon": 84.81949355387145, "alt_km": 659.0075573127133, "timestamp": "2025-12-21T07:34:34.910331+00:00", "meta": {"OBJECT_NAME": "COSMOS 2251 DEB", "OBJECT_ID": "1993-036AHQ", "EPOCH": "2025-12-19T05:57:32.306976", "MEAN_MOTION": 14.67879438, "ECCENTRICITY": 0.0039387, "INCLINATION": 74.0462, "RA_OF_ASC_NODE": 293.1533, "ARG_OF_PERICENTER": 42.1528, "MEAN_ANOMALY": 318.2658, "EPHEMERIS_TYPE": 0, "CLASSIFICATION_TYPE": "U", "NORAD_CAT_ID": 35061, "ELEMENT_SET_NO": 999, "REV_AT_EPOCH": 88670, "BSTAR": 0.00054945, "MEAN_MOTION_DOT": 3.147e-05, "MEAN_MOTION_DDOT": 0}, "tle": {"line1": "1 35061U 93036AHQ 25353.24829059  .00003147  00000+0  54945-3 0  9997", "line2": "2 35061  74.0462 293.1533 0039387  42.1528 318.2658 14.67879438886707"}}, "geometry": {"type": "Point", "coordinates": [84.81949355387145, 55.23967208161192]}}, {"type": "Feature", "properties": {"norad_id": 35062, "name": "COSMOS 2251 DEB", "group": "cosmos-2251-debris", "lat": -50.21255612718389, "lon": -82.08744308479318, "alt_km": 905.9330375886502, "timestamp": "2025-12-21T07:34:34.910340+00:00", "meta": {"OBJECT_NAME": "COSMOS 2251 DEB", "OBJECT_ID": "1993-036AHR", "EPOCH": "2025-12-20T22:03:28.302912", "MEAN_MOTION": 14.22993492, "ECCENTRICITY": 0.01264532, "INCLINATION": 74.0793, "RA_OF_ASC_NODE": 78.5797, "ARG_OF_PERICENTER": 75.845, "MEAN_ANOMALY": 285.6708, "EPHEMERIS_TYPE": 0, "CLASSIFICATION_TYPE": "U", "NORAD_CAT_ID": 35062, "ELEMENT_SET_NO": 999, "REV_AT_EPOCH": 85615, "BSTAR": 0.0011492886, "MEAN_MOTION_DOT": 2.786e-05, "MEAN_MOTION_DDOT": 0}, "tle": {"line1": "1 35062U 93036AHR 25354.91907758  .00002786  00000+0  11493-2 0  9994", "line2": "2 35062  74.0793  78.5797 0126453  75.8450 285.6708 14.22993492856157"}}, "geometry": {"type": "Point", "coordinates": [-82.08744308479318, -50.21255612718389]}}, {"type": "Feature", "properties": {"norad_id": 35065, "name": "COSMOS 2251 DEB", "group": "cosmos-2251-debris", "lat": -72.06180940920603, "lon": 60.61139007567482, "alt_km": 735.6648893550237, "timestamp": "2025-12-21T07:34:34.910349+00:00", "meta": {"OBJECT_NAME": "COSMOS 2251 DEB", "OBJECT_ID": "1993-036AHU", "EPOCH": "2025-12-19T06:12:25.656192", "MEAN_MOTION": 14.4574331, "ECCENTRICITY": 0.0020018, "INCLINATION": 74.0185, "RA_OF_ASC_NODE": 182.1668, "ARG_OF_PERICENTER": 306.5523, "MEAN_ANOMALY": 53.3791, "EPHEMERIS_TYPE": 0, "CLASSIFICATION_TYPE": "U", "NORAD_CAT_ID": 35065, "ELEMENT_SET_NO": 999, "REV_AT_EPOCH": 68445, "BSTAR": 0.00028971, "MEAN_MOTION_DOT": 1.002e-05, "MEAN_MOTION_DDOT": 0}, "tle": {"line1": "1 35065U 93036AHU 25353.25863028  .00001002  00000+0  28971-3 0  9994", "line2": "2 35065  74.0185 182.1668 0020018 306.5523  53.3791 14.45743310684450"}}, "geometry": {"type": "Point", "coordinates": [60.61139007567482, -72.06180940920603]}}, {"type": "Feature", "properties": {"norad_id": 35071, "name": "COSMOS 2251 DEB", "group": "cosmos-2251-debris", "lat": 68.21390424477511, "lon": -70.34969689598711, "alt_km": 521.4182598788939, "timestamp": "2025-12-21T07:34:34.910358+00:00", "meta": {"OBJECT_NAME": "COSMOS 2251 DEB", "OBJECT_ID": "1993-036AJA", "EPOCH": "2025-12-15T18:34:31.974816", "MEAN_MOTION": 15.0351885, "ECCENTRICITY": 0.00682233, "INCLINATION": 73.9308, "RA_OF_ASC_NODE": 167.1964, "ARG_OF_PERICENTER": 62.71, "MEAN_ANOMALY": 298.1014, "EPHEMERIS_TYPE": 0, "CLASSIFICATION_TYPE": "U", "NORAD_CAT_ID": 35071, "ELEMENT_SET_NO": 999, "REV_AT_EPOCH": 67582, "BSTAR": 0.00048026378, "MEAN_MOTION_DOT": 6.858e-05, "MEAN_MOTION_DDOT": 0}, "tle": {"line1": "1 35071U 93036AJA 25349.77398119  .00006858  00000+0  48026-3 0  9994", "line2": "2 35071  73.9308 167.1964 0068223  62.7100 298.1014 15.03518850675828"}}, "geometry": {"type": "Point", "coordinates": [-70.34969689598711, 68.21390424477511]}}, {"type": "Feature", "properties": {"norad_id": 35073, "name": "COSMOS 2251 DEB", "group": "cosmos-2251-debris", "lat": 45.94147057384268, "lon": 115.83558488872798, "alt_km": 557.20177697495, "timestamp": "2025-12-21T07:34:34.910366+00:00", "meta": {"OBJECT_NAME": "COSMOS 2251 DEB", "OBJECT_ID": "1993-036AJC", "EPOCH": "2025-12-20T14:59:56.628672", "MEAN_MOTION": 15.0114479, "ECCENTRICITY": 0.0011172, "INCLINATION": 74.0011, "RA_OF_ASC_NODE": 314.4923, "ARG_OF_PERICENTER": 56.0147, "MEAN_ANOMALY": 304.21, "EPHEMERIS_TYPE": 0, "CLASSIFICATION_TYPE": "U", "NORAD_CAT_ID": 35073, "ELEMENT_SET_NO": 999, "REV_AT_EPOCH": 67597, "BSTAR": 0.0019051, "MEAN_MOTION_DOT": 0.00024496, "MEAN_MOTION_DDOT": 0}, "tle": {"line1": "1 35073U 93036AJC 25354.62496098  .00024496  00000+0  19051-2 0  9994", "line2": "2 35073  74.0011 314.4923 0011172  56.0147 304.2100 15.01144790675970"}}, "geometry": {"type": "Point", "coordinates": [115.83558488872798, 45.94147057384268]}}, {"type": "Feature", "properties": {"norad_id": 35284, "name": "COSMOS 2251 DEB", "group": "cosmos-2251-debris", "lat": 73.85628697509961, "lon": -30.224462489572808, "alt_km": 763.3983572657735, "timestamp": "2025-12-21T07:34:34.910375+00:00", "meta": {"OBJECT_NAME": "COSMOS 2251 DEB", "OBJECT_ID": "1993-036AJN", "EPOCH": "2025-12-20T11:57:49.053888", "MEAN_MOTION": 14.38325797, "ECCENTRICITY": 0.00170776, "INCLINATION": 74.0488, "RA_OF_ASC_NODE": 250.1381, "ARG_OF_PERICENTER": 325.4276, "MEAN_ANOMALY": 212.2402, "EPHEMERIS_TYPE": 0, "CLASSIFICATION_TYPE": "U", "NORAD_CAT_ID": 35284, "ELEMENT_SET_NO": 999, "REV_AT_EPOCH": 65637, "BSTAR": 0.00012056337, "MEAN_MOTION_DOT": 3.41e-06, "MEAN_MOTION_DDOT": 0}, "tle": {"line1": "1 35284U 93036AJN 25354.49848442  .00000341  00000+0  12056-3 0  9999", "line2": "2 35284  74.0488 250.1381 0017077 325.4276 212.2402 14.38325797656375"}}, "geometry": {"type": "Point", "coordinates": [-30.224462489572808, 73.85628697509961]}}, {"type": "Feature", "properties": {"norad_id": 35287, "name": "COSMOS 2251 DEB", "group": "cosmos-2251-debris", "lat": -22.209783000091903, "lon": 87.0923726827589, "alt_km": 786.779209284111, "timestamp": "2025-12-21T07:34:34.910385+00:00", "meta": {"OBJECT_NAME": "COSMOS 2251 DEB", "OBJECT_ID": "1993-036AJR", "EPOCH": "2025-12-20T04:35:49.901856", "MEAN_MOTION": 14.36382318, "ECCENTRICITY": 0.00179029, "INCLINATION": 74.0304, "RA_OF_ASC_NODE": 262.443, "ARG_OF_PERICENTER": 357.4612, "MEAN_ANOMALY": 155.1541, "EPHEMERIS_TYPE": 0, "CLASSIFICATION_TYPE": "U", "NORAD_CAT_ID": 35287, "ELEMENT_SET_NO": 999, "REV_AT_EPOCH": 86999, "BSTAR": 9.9147668e-05, "MEAN_MOTION_DOT": 2.64e-06, "MEAN_MOTION_DDOT": 0}, "tle": {"line1": "1 35287U 93036AJR 25354.19154979  .00000264  00000+0  99148-4 0  9996", "line2": "2 35287  74.0304 262.4430 0017902 357.4612 155.1541 14.36382318869995"}}, "geometry": {"type": "Point", "coordinates": [87.0923726827589, -22.209783000091903]}}, {"type": "Feature", "properties": {"norad_id": 35288, "name": "COSMOS 2251 DEB", "group": "cosmos-2251-debris", "lat": 7.988671266438271, "lon": 176.2647721202341, "alt_km": 662.5909005227231, "timestamp": "2025-12-21T07:34:34.910394+00:00", "meta": {"OBJECT_NAME": "COSMOS 2251 DEB", "OBJECT_ID": "1993-036AJS", "EPOCH": "2025-12-18T09:59:01.456512", "MEAN_MOTION": 14.6551495, "ECCENTRICITY": 0.00391709, "INCLINATION": 73.9507, "RA_OF_ASC_NODE": 4.189, "ARG_OF_PERICENTER": 236.8984, "MEAN_ANOMALY": 122.8422, "EPHEMERIS_TYPE": 0, "CLASSIFICATION_TYPE": "U", "NORAD_CAT_ID": 35288, "ELEMENT_SET_NO": 999, "REV_AT_EPOCH": 87961, "BSTAR": 0.00084957845, "MEAN_MOTION_DOT": 4.628e-05, "MEAN_MOTION_DDOT": 0}, "tle": {"line1": "1 35288U 93036AJS 25352.41598908  .00004628  00000+0  84958-3 0  9994", "line2": "2 35288  73.9507   4.1890 0039170 236.8984 122.8422 14.65514950879613"}}, "geometry": {"type": "Point", "coordinates": [176.2647721202341, 7.988671266438271]}}]}